{
  "type": "FeatureCollection",
  "features": [
    {
      "type": "Feature",
      "properties": {
        "norad_id": 66968,
        "name": "STARLINK-36152",
        "group": "last-30-days",
        "lat": -5.456953693256125,
        "lon": 78.81942605590076,
        "alt_km": 384.56034195281063,
        "timestamp": "2025-12-26T06:43:28.235713+00:00",
        "meta_object_name": "STARLINK-36152",
        "meta_object_id": "2025-288K",
        "meta_epoch": "2025-12-25T22:00:01.999584",
        "meta_mean_motion": 15.62694986,
        "meta_eccentricity": 0.00014356,
        "meta_inclination": 43.0001,
        "meta_ra_of_asc_node": 86.8666,
        "meta_arg_of_pericenter": 287.6822,
        "meta_mean_anomaly": 178.0276,
        "meta_ephemeris_type": 0,
        "meta_classification_type": "U",
        "meta_norad_cat_id": 66968,
        "meta_element_set_no": 999,
        "meta_rev_at_epoch": 394,
        "meta_bstar": -0.024878445,
        "meta_mean_motion_dot": -0.02014038,
        "meta_mean_motion_ddot": 0,
        "tle_line1": "1 66968U 25288K   25359.91668981 -.02014038  00000+0 -24878-1 0  9991",
        "tle_line2": "2 66968  43.0001  86.8666 0001435 287.6822 178.0276 15.62694986  3946"
      },
      "geometry": {
        "type": "Point",
        "coordinates": [
          78.81942605590076,
          -5.456953693256125
        ]
      }
    },
    {
      "type": "Feature",
      "properties": {
        "norad_id": 66969,
        "name": "STARLINK-36149",
        "group": "last-30-days",
        "lat": 1.069111592459268,
        "lon": 85.82622133398567,
        "alt_km": 383.9469749900527,
        "timestamp": "2025-12-26T06:43:28.235723+00:00",
        "meta_object_name": "STARLINK-36149",
        "meta_object_id": "2025-288L",
        "meta_epoch": "2025-12-25T22:00:01.999584",
        "meta_mean_motion": 15.62701342,
        "meta_eccentricity": 0.00013815,
        "meta_inclination": 43.0001,
        "meta_ra_of_asc_node": 86.8417,
        "meta_arg_of_pericenter": 287.3356,
        "meta_mean_anomaly": 187.9582,
        "meta_ephemeris_type": 0,
        "meta_classification_type": "U",
        "meta_norad_cat_id": 66969,
        "meta_element_set_no": 999,
        "meta_rev_at_epoch": 394,
        "meta_bstar": -0.02502684,
        "meta_mean_motion_dot": -0.02024955,
        "meta_mean_motion_ddot": 0,
        "tle_line1": "1 66969U 25288L   25359.91668981 -.02024955  00000+0 -25027-1 0  9998",
        "tle_line2": "2 66969  43.0001  86.8417 0001381 287.3356 187.9582 15.62701342  3944"
      },
      "geometry": {
        "type": "Point",
        "coordinates": [
          85.82622133398567,
          1.069111592459268
        ]
      }
    },
    {
      "type": "Feature",
      "properties": {
        "norad_id": 66970,
        "name": "STARLINK-35703",
        "group": "last-30-days",
        "lat": 6.2834156360723235,
        "lon": 91.44516964477205,
        "alt_km": 383.41442823972193,
        "timestamp": "2025-12-26T06:43:28.235733+00:00",
        "meta_object_name": "STARLINK-35703",
        "meta_object_id": "2025-288M",
        "meta_epoch": "2025-12-25T22:00:01.999584",
        "meta_mean_motion": 15.62696163,
        "meta_eccentricity": 0.0001304,
        "meta_inclination": 43.0003,
        "meta_ra_of_asc_node": 86.8222,
        "meta_arg_of_pericenter": 285.7594,
        "meta_mean_anomaly": 197.205,
        "meta_ephemeris_type": 0,
        "meta_classification_type": "U",
        "meta_norad_cat_id": 66970,
        "meta_element_set_no": 999,
        "meta_rev_at_epoch": 394,
        "meta_bstar": -0.024928321,
        "meta_mean_motion_dot": -0.02017555,
        "meta_mean_motion_ddot": 0,
        "tle_line1": "1 66970U 25288M   25359.91668981 -.02017555  00000+0 -24928-1 0  9997",
        "tle_line2": "2 66970  43.0003  86.8222 0001304 285.7594 197.2050 15.62696163  3941"
      },
      "geometry": {
        "type": "Point",
        "coordinates": [
          91.44516964477205,
          6.2834156360723235
        ]
      }
    },
    {
      "type": "Feature",
      "properties": {
        "norad_id": 66971,
        "name": "STARLINK-35678",
        "group": "last-30-days",
        "lat": -4.155900179847139,
        "lon": 80.22667523546397,
        "alt_km": 384.54011767473094,
        "timestamp": "2025-12-26T06:43:28.235743+00:00",
        "meta_object_name": "STARLINK-35678",
        "meta_object_id": "2025-288N",
        "meta_epoch": "2025-12-25T22:00:01.999584",
        "meta_mean_motion": 15.62696074,
        "meta_eccentricity": 0.00012705,
        "meta_inclination": 43.0001,
        "meta_ra_of_asc_node": 86.8619,
        "meta_arg_of_pericenter": 285.9844,
        "meta_mean_anomaly": 181.6451,
        "meta_ephemeris_type": 0,
        "meta_classification_type": "U",
        "meta_norad_cat_id": 66971,
        "meta_element_set_no": 999,
        "meta_rev_at_epoch": 394,
        "meta_bstar": -0.024961095,
        "meta_mean_motion_dot": -0.02019845,
        "meta_mean_motion_ddot": 0,
        "tle_line1": "1 66971U 25288N   25359.91668981 -.02019845  00000+0 -24961-1 0  9999",
        "tle_line2": "2 66971  43.0001  86.8619 0001270 285.9844 181.6451 15.62696074  3945"
      },
      "geometry": {
        "type": "Point",
        "coordinates": [
          80.22667523546397,
          -4.155900179847139
        ]
      }
    },
    {
      "type": "Feature",
      "properties": {
        "norad_id": 66972,
        "name": "STARLINK-34846",
        "group": "last-30-days",
        "lat": -2.850938129895644,
        "lon": 81.63057844888195,
        "alt_km": 384.4024968388576,
        "timestamp": "2025-12-26T06:43:28.235753+00:00",
        "meta_object_name": "STARLINK-34846",
        "meta_object_id": "2025-288P",
        "meta_epoch": "2025-12-25T22:00:01.999584",
        "meta_mean_motion": 15.62699352,
        "meta_eccentricity": 0.0001394,
        "meta_inclination": 43.0002,
        "meta_ra_of_asc_node": 86.857,
        "meta_arg_of_pericenter": 284.374,
        "meta_mean_anomaly": 185.1686,
        "meta_ephemeris_type": 0,
        "meta_classification_type": "U",
        "meta_norad_cat_id": 66972,
        "meta_element_set_no": 999,
        "meta_rev_at_epoch": 394,
        "meta_bstar": -0.024976019,
        "meta_mean_motion_dot": -0.02021226,
        "meta_mean_motion_ddot": 0,
        "tle_line1": "1 66972U 25288P   25359.91668981 -.02021226  00000+0 -24976-1 0  9992",
        "tle_line2": "2 66972  43.0002  86.8570 0001394 284.3740 185.1686 15.62699352  3949"
      },
      "geometry": {
        "type": "Point",
        "coordinates": [
          81.63057844888195,
          -2.850938129895644
        ]
      }
    },
    {
      "type": "Feature",
      "properties": {
        "norad_id": 66973,
        "name": "STARLINK-35778",
        "group": "last-30-days",
        "lat": -1.54577153917317,
        "lon": 83.03003779420813,
        "alt_km": 384.25760430065293,
        "timestamp": "2025-12-26T06:43:28.235763+00:00",
        "meta_object_name": "STARLINK-35778",
        "meta_object_id": "2025-288Q",
        "meta_epoch": "2025-12-25T22:00:01.999584",
        "meta_mean_motion": 15.62697399,
        "meta_eccentricity": 0.00013107,
        "meta_inclination": 43,
        "meta_ra_of_asc_node": 86.8525,
        "meta_arg_of_pericenter": 286.3076,
        "meta_mean_anomaly": 185.1539,
        "meta_ephemeris_type": 0,
        "meta_classification_type": "U",
        "meta_norad_cat_id": 66973,
        "meta_element_set_no": 999,
        "meta_rev_at_epoch": 394,
        "meta_bstar": -0.024962248,
        "meta_mean_motion_dot": -0.02020051,
        "meta_mean_motion_ddot": 0,
        "tle_line1": "1 66973U 25288Q   25359.91668981 -.02020051  00000+0 -24962-1 0  9993",
        "tle_line2": "2 66973  43.0000  86.8525 0001310 286.3076 185.1539 15.62697399  3946"
      },
      "geometry": {
        "type": "Point",
        "coordinates": [
          83.03003779420813,
          -1.54577153917317
        ]
      }
    },
    {
      "type": "Feature",
      "properties": {
        "norad_id": 66974,
        "name": "STARLINK-35780",
        "group": "last-30-days",
        "lat": -0.23956258406420444,
        "lon": 84.42762396347916,
        "alt_km": 384.09063456660533,
        "timestamp": "2025-12-26T06:43:28.235774+00:00",
        "meta_object_name": "STARLINK-35780",
        "meta_object_id": "2025-288R",
        "meta_epoch": "2025-12-25T22:00:01.999584",
        "meta_mean_motion": 15.62697267,
        "meta_eccentricity": 0.00012883,
        "meta_inclination": 43.0001,
        "meta_ra_of_asc_node": 86.8477,
        "meta_arg_of_pericenter": 288.1327,
        "meta_mean_anomaly": 185.2452,
        "meta_ephemeris_type": 0,
        "meta_classification_type": "U",
        "meta_norad_cat_id": 66974,
        "meta_element_set_no": 999,
        "meta_rev_at_epoch": 394,
        "meta_bstar": -0.024957306,
        "meta_mean_motion_dot": -0.02019674,
        "meta_mean_motion_ddot": 0,
        "tle_line1": "1 66974U 25288R   25359.91668981 -.02019674  00000+0 -24957-1 0  9997",
        "tle_line2": "2 66974  43.0001  86.8477 0001288 288.1327 185.2452 15.62697267  3946"
      },
      "geometry": {
        "type": "Point",
        "coordinates": [
          84.42762396347916,
          -0.23956258406420444
        ]
      }
    }
  ]
}